NORAD_CAT_ID,OBJECT_NAME,OBJECT_TYPE,EPOCH,MEAN_MOTION,ECCENTRICITY,INCLINATION,RA_OF_ASC_NODE,ARG_OF_PERICENTER,MEAN_ANOMALY,BSTAR,MEAN_MOTION_DOT,MEAN_MOTION_DDOT,TLE_LINE0,TLE_LINE1,TLE_LINE2,SEMIMAJOR_AXIS,PERIOD,APOGEE,PERIGEE,DECAYED
51462.0,STARLINK-3166,PAYLOAD,2023-03-30 10:13:12,15.08872849,0.0001101,53.2161,66.175,99.8187,260.2929,0.0022786,0.00036195,0.0,0 STARLINK-3166,1 51462U 22010G   23089.42583604  .00036195  00000-0  22786-2 0  9998,2 51462  53.2161  66.1750 0001101  99.8187 260.2929 15.08872849 64493,6917.78,95.435,540.407,538.883,0.0
51462.0,STARLINK-3166,PAYLOAD,2023-03-31 05:17:50,15.08845997,0.0001425,53.216,62.6075,94.3554,265.7601,0.0014231,0.00022437,0.0,0 STARLINK-3166,1 51462U 22010G   23090.22072343  .00022437  00000-0  14231-2 0  9991,2 51462  53.2160  62.6075 0001425  94.3554 265.7601 15.08845997 65087,6917.862,95.437,540.713,538.741,0.0
51462.0,STARLINK-3166,PAYLOAD,2023-03-31 21:11:42,15.08843901,0.000177,53.217,59.6324,86.4293,273.6902,0.0011626,0.00018265,0.0,0 STARLINK-3166,1 51462U 22010G   23090.88312855  .00018265  00000-0  11626-2 0  9997,2 51462  53.2170  59.6324 0001770  86.4293 273.6902 15.08843901 65182,6917.868,95.437,540.958,538.509,0.0
51462.0,STARLINK-3166,PAYLOAD,2023-04-01 05:08:38,15.08840605,0.0001252,53.2152,58.1464,83.9803,276.1332,0.00096032,0.00015029,0.0,0 STARLINK-3166,1 51462U 22010G   23091.21432957  .00015029  00000-0  96032-3 0  9991,2 51462  53.2152  58.1464 0001252  83.9803 276.1332 15.08840605 65234,6917.879,95.438,540.61,538.877,0.0
51462.0,STARLINK-3166,PAYLOAD,2023-04-02 06:34:48,15.08853092,0.0001307,53.2156,53.3879,78.9757,281.1382,0.00060544,9.364e-05,0.0,0 STARLINK-3166,1 51462U 22010G   23092.27416751  .00009364  00000-0  60544-3 0  9996,2 51462  53.2156  53.3879 0001307  78.9757 281.1382 15.08853092 65390,6917.84,95.437,540.61,538.801,0.0
51462.0,STARLINK-3166,PAYLOAD,2023-04-02 20:53:16,15.08846557,0.0001262,53.2159,50.7116,83.7356,276.3779,0.00023947,3.526e-05,0.0,0 STARLINK-3166,1 51462U 22010G   23092.87032744  .00003526  00000-0  23947-3 0  9998,2 51462  53.2159  50.7116 0001262  83.7356 276.3779 15.08846557 65481,6917.86,95.437,540.598,538.852,0.0
51462.0,STARLINK-3166,PAYLOAD,2023-04-03 06:25:34,15.0885735,0.000121,53.2158,48.927,93.4339,266.6792,0.0005095,7.834e-05,0.0,0 STARLINK-3166,1 51462U 22010G   23093.26776318  .00007834  00000-0  50950-3 0  9994,2 51462  53.2158  48.9270 0001210  93.4339 266.6792 15.08857350 65077,6917.827,95.436,540.529,538.855,0.0
51462.0,STARLINK-3166,PAYLOAD,2023-04-03 20:44:03,15.08840374,0.0001278,53.216,46.2507,95.0712,265.0426,0.00017676,2.526e-05,0.0,0 STARLINK-3166,1 51462U 22010G   23093.86392830  .00002526  00000-0  17676-3 0  9994,2 51462  53.2160  46.2507 0001278  95.0712 265.0426 15.08840374 65638,6917.879,95.438,540.628,538.86,0.0
51462.0,STARLINK-3166,PAYLOAD,2023-04-04 06:16:22,15.08853264,0.0001267,53.2155,44.4672,88.8045,271.3092,0.00085633,0.00013372,0.0,0 STARLINK-3166,1 51462U 22010G   23094.26136700  .00013372  00000-0  85633-3 0  9990,2 51462  53.2155  44.4672 0001267  88.8045 271.3092 15.08853264 65699,6917.84,95.437,540.581,538.828,0.0
51462.0,STARLINK-3166,PAYLOAD,2023-04-04 20:34:50,15.08844901,0.0001314,53.2164,41.7889,89.6893,270.4249,0.0007364,0.00011453,0.0,0 STARLINK-3166,1 51462U 22010G   23094.85752838  .00011453  00000-0  73640-3 0  9994,2 51462  53.2164  41.7889 0001314  89.6893 270.4249 15.08844901 65784,6917.865,95.437,540.639,538.821,0.0
51462.0,STARLINK-3166,PAYLOAD,2023-04-05 02:56:22,15.08867384,0.0001419,53.2169,40.6004,92.0688,268.0467,0.0015338,0.00024225,0.0,0 STARLINK-3166,1 51462U 22010G   23095.12248394  .00024225  00000-0  15338-2 0  9992,2 51462  53.2169  40.6004 0001419  92.0688 268.0467 15.08867384 65822,6917.797,95.436,540.643,538.68,0.0
51462.0,STARLINK-3166,PAYLOAD,2023-04-05 06:07:08,15.08879116,0.0001248,53.2167,40.0061,80.1278,279.9855,0.0016555,0.00026186,0.0,0 STARLINK-3166,1 51462U 22010G   23095.25496031  .00026186  00000-0  16555-2 0  9999,2 51462  53.2167  40.0061 0001248  80.1278 279.9855 15.08879116 65378,6917.761,95.435,540.489,538.762,0.0
51462.0,STARLINK-3166,PAYLOAD,2023-04-05 20:25:37,15.08845958,7.25e-05,53.2169,37.3315,95.3597,264.7478,0.00084501,0.00013188,0.0,0 STARLINK-3166,1 51462U 22010G   23095.85112306  .00013188  00000-0  84501-3 0  9990,2 51462  53.2169  37.3315 0000725  95.3597 264.7478 15.08845958 65934,6917.862,95.437,540.229,539.226,0.0
51462.0,STARLINK-3166,PAYLOAD,2023-04-06 05:57:55,15.08848769,0.0001172,53.2167,35.5467,98.2748,261.8377,0.00059923,9.264e-05,0.0,0 STARLINK-3166,1 51462U 22010G   23096.24856250  .00009264  00000-0  59923-3 0  9997,2 51462  53.2167  35.5467 0001172  98.2748 261.8377 15.08848769 65521,6917.854,95.437,540.529,538.908,0.0
51462.0,STARLINK-3166,PAYLOAD,2023-04-06 20:16:24,15.08831167,0.0001163,53.2174,32.8681,89.8023,270.3102,0.00064681,0.00010019,0.0,0 STARLINK-3166,1 51462U 22010G   23096.84473037  .00010019  00000-0  64681-3 0  9998,2 51462  53.2174  32.8681 0001163  89.8023 270.3102 15.08831167 66086,6917.907,95.438,540.577,538.968,0.0
51462.0,STARLINK-3166,PAYLOAD,2023-04-07 05:48:43,15.08842242,0.0001134,53.2173,31.0852,80.6779,279.4341,0.00078591,0.00012243,0.0,0 STARLINK-3166,1 51462U 22010G   23097.24217147  .00012243  00000-0  78591-3 0  9997,2 51462  53.2173  31.0852 0001134  80.6779 279.4341 15.08842242 65676,6917.874,95.437,540.523,538.954,0.0
51462.0,STARLINK-3166,PAYLOAD,2023-04-07 20:07:12,15.08838414,0.0001262,53.2169,28.4101,89.328,270.7857,0.00030652,4.594e-05,0.0,0 STARLINK-3166,1 51462U 22010G   23097.83833366  .00004594  00000-0  30652-3 0  9995,2 51462  53.2169  28.4101 0001262  89.3280 270.7857 15.08838414 66238,6917.885,95.438,540.623,538.877,0.0
51462.0,STARLINK-3166,PAYLOAD,2023-04-08 04:04:07,15.08855777,0.0001256,53.2187,26.9246,96.8535,263.26,0.0007587,0.00011813,0.0,0 STARLINK-3166,1 51462U 22010G   23098.16952956  .00011813  00000-0  75870-3 0  9992,2 51462  53.2187  26.9246 0001256  96.8535 263.2600 15.08855777 66289,6917.832,95.437,540.566,538.828,0.0
51462.0,STARLINK-3166,PAYLOAD,2023-04-08 19:58:00,15.0881845,0.0001793,53.2178,23.9463,98.5709,261.5487,-0.00024031,-4.108e-05,0.0,0 STARLINK-3166,1 51462U 22010G   23098.83194509 -.00004108  00000-0 -24031-3 0  9992,2 51462  53.2178  23.9463 0001793  98.5709 261.5487 15.08818450 66387,6917.946,95.439,541.052,538.571,0.0
51462.0,STARLINK-3166,PAYLOAD,2023-04-09 03:54:57,15.0878952,0.00014,53.2173,22.4631,81.6212,278.4939,-0.00069488,-0.00011314,0.0,0 STARLINK-3166,1 51462U 22010G   23099.16316289 -.00011314  00000-0 -69488-3 0  9992,2 51462  53.2173  22.4631 0001400  81.6212 278.4939 15.08789520 66430,6918.035,95.441,540.868,538.931,0.0
51462.0,STARLINK-3166,PAYLOAD,2023-04-09 19:48:49,15.08819005,0.0001325,53.2174,19.4891,77.5509,282.5631,0.00064406,9.971e-05,0.0,0 STARLINK-3166,1 51462U 22010G   23099.82556838  .00009971  00000-0  64406-3 0  9990,2 51462  53.2174  19.4891 0001325  77.5509 282.5631 15.08819005 66532,6917.945,95.439,540.726,538.893,0.0
51462.0,STARLINK-3166,PAYLOAD,2023-04-10 03:45:44,15.08856688,0.0001374,53.2171,18.0021,96.6073,263.5076,0.0015831,0.00025008,0.0,0 STARLINK-3166,1 51462U 22010G   23100.15676132  .00025008  00000-0  15831-2 0  9995,2 51462  53.2171  18.0021 0001374  96.6073 263.5076 15.08856688 66586,6917.829,95.436,540.645,538.744,0.0
51462.0,STARLINK-3166,PAYLOAD,2023-04-10 18:04:11,15.0886906,0.0001639,53.2169,15.3259,92.3983,267.7196,0.00076156,0.00011863,0.0,0 STARLINK-3166,1 51462U 22010G   23100.75291201  .00011863  00000-0  76156-3 0  9993,2 51462  53.2169  15.3259 0001639  92.3983 267.7196 15.08869060 66209,6917.792,95.436,540.79,538.523,0.0
51462.0,STARLINK-3166,PAYLOAD,2023-04-11 03:36:29,15.08879691,0.000148,53.2162,13.5414,94.5167,265.5995,0.00074371,0.00011581,0.0,0 STARLINK-3166,1 51462U 22010G   23101.15033938  .00011581  00000-0  74371-3 0  9993,2 51462  53.2162  13.5414 0001480  94.5167 265.5995 15.08879691 66267,6917.759,95.435,540.648,538.6,0.0
51462.0,STARLINK-3166,PAYLOAD,2023-04-11 17:54:57,15.08855942,0.000138,53.2174,10.8652,99.4417,260.6731,-0.0001412,-2.535e-05,0.0,0 STARLINK-3166,1 51462U 22010G   23101.74649546 -.00002535  00000-0 -14120-3 0  9993,2 51462  53.2174  10.8652 0001380  99.4417 260.6731 15.08855942 66824,6917.832,95.437,540.651,538.742,0.0
51462.0,STARLINK-3166,PAYLOAD,2023-04-12 03:27:15,15.08853435,0.0001124,53.2179,9.0808,100.0489,260.063,-5.8775e-05,-1.223e-05,0.0,0 STARLINK-3166,1 51462U 22010G   23102.14393426 -.00001223  00000-0 -58775-4 0  9999,2 51462  53.2179   9.0808 0001124 100.0489 260.0630 15.08853435 66418,6917.839,95.437,540.482,538.927,0.0
51462.0,STARLINK-3166,PAYLOAD,2023-04-12 19:21:07,15.08841388,9.15e-05,53.2171,6.108,92.9368,267.1729,-0.00019236,-3.348e-05,0.0,0 STARLINK-3166,1 51462U 22010G   23102.80633846 -.00003348  00000-0 -19236-3 0  9993,2 51462  53.2171   6.1080 0000915  92.9368 267.1729 15.08841388 66985,6917.876,95.437,540.374,539.108,0.0
51462.0,STARLINK-3166,PAYLOAD,2023-04-13 03:18:03,15.08848171,0.0001024,53.217,4.6207,84.0514,276.0595,8.2417e-05,1.024e-05,0.0,0 STARLINK-3166,1 51462U 22010G   23103.13753542  .00001024  00000-0  82417-4 0  9995,2 51462  53.2170   4.6207 0001024  84.0514 276.0595 15.08848171 66566,6917.855,95.437,540.429,539.012,0.0
51462.0,STARLINK-3166,PAYLOAD,2023-04-14 03:08:50,15.08857417,8.58e-05,53.2172,0.1605,81.4468,278.6621,0.00051848,7.977e-05,0.0,0 STARLINK-3166,1 51462U 22010G   23104.13113455  .00007977  00000-0  51848-3 0  9995,2 51462  53.2172   0.1605 0000858  81.4468 278.6621 15.08857417 66712,6917.827,95.436,540.286,539.099,0.0
51462.0,STARLINK-3166,PAYLOAD,2023-04-14 22:13:27,15.08847658,0.0001063,53.2171,356.5913,93.0933,267.0181,0.00015027,2.105e-05,0.0,0 STARLINK-3166,1 51462U 22010G   23104.92601512  .00002105  00000-0  15027-3 0  9995,2 51462  53.2171 356.5913 0001063  93.0933 267.0181 15.08847658 67301,6917.857,95.437,540.457,538.987,0.0
